CCSDS_OMM_VERS = 2.0
CREATION_DATE  = 
ORIGINATOR     = 

OBJECT_NAME    = KUIPER-00196
OBJECT_ID      = 2025-301M
CENTER_NAME    = EARTH
REF_FRAME      = TEME
TIME_SYSTEM    = UTC
MEAN_ELEMENT_THEORY = SGP/SGP4

EPOCH          = 2026-01-03T21:24:53.842176
MEAN_MOTION    = 15.36350795
ECCENTRICITY   = .00038488
INCLINATION    = 51.8737
RA_OF_ASC_NODE = 18.2221
ARG_OF_PERICENTER = 121.0736
MEAN_ANOMALY   = 239.0629

EPHEMERIS_TYPE = 0
CLASSIFICATION_TYPE = U
NORAD_CAT_ID   = 67144
ELEMENT_SET_NO = 999
REV_AT_EPOCH   = 377
BSTAR          = .11441447E-2
MEAN_MOTION_DOT = .4103E-3
MEAN_MOTION_DDOT = 0

CCSDS_OMM_VERS = 2.0
CREATION_DATE  = 
ORIGINATOR     = 

OBJECT_NAME    = KUIPER-00204
OBJECT_ID      = 2025-301N
CENTER_NAME    = EARTH
REF_FRAME      = TEME
TIME_SYSTEM    = UTC
MEAN_ELEMENT_THEORY = SGP/SGP4

EPOCH          = 2026-01-03T22:00:01.999584
MEAN_MOTION    = 15.35201392
ECCENTRICITY   = .00037025
INCLINATION    = 51.8757
RA_OF_ASC_NODE = 18.0289
ARG_OF_PERICENTER = 91.9176
MEAN_ANOMALY   = 73.6635

EPHEMERIS_TYPE = 0
CLASSIFICATION_TYPE = U
NORAD_CAT_ID   = 67145
ELEMENT_SET_NO = 999
REV_AT_EPOCH   = 388
BSTAR          = -.11555495E-1
MEAN_MOTION_DOT = -.381826E-2
MEAN_MOTION_DDOT = 0

CCSDS_OMM_VERS = 2.0
CREATION_DATE  = 
ORIGINATOR     = 

OBJECT_NAME    = KUIPER-00210
OBJECT_ID      = 2025-301P
CENTER_NAME    = EARTH
REF_FRAME      = TEME
TIME_SYSTEM    = UTC
MEAN_ELEMENT_THEORY = SGP/SGP4

EPOCH          = 2026-01-03T21:56:53.885184
MEAN_MOTION    = 15.34627786
ECCENTRICITY   = .0010738
INCLINATION    = 51.8604
RA_OF_ASC_NODE = 18.3560
ARG_OF_PERICENTER = 177.0920
MEAN_ANOMALY   = 183.0130

EPHEMERIS_TYPE = 0
CLASSIFICATION_TYPE = U
NORAD_CAT_ID   = 67146
ELEMENT_SET_NO = 999
REV_AT_EPOCH   = 394
BSTAR          = .12576659E-2
MEAN_MOTION_DOT = .42778E-3
MEAN_MOTION_DDOT = 0

CCSDS_OMM_VERS = 2.0
CREATION_DATE  = 
ORIGINATOR     = 

OBJECT_NAME    = KUIPER-00221
OBJECT_ID      = 2025-301Q
CENTER_NAME    = EARTH
REF_FRAME      = TEME
TIME_SYSTEM    = UTC
MEAN_ELEMENT_THEORY = SGP/SGP4

EPOCH          = 2026-01-03T21:30:00.454176
MEAN_MOTION    = 15.36108114
ECCENTRICITY   = .00051302
INCLINATION    = 51.8725
RA_OF_ASC_NODE = 18.2461
ARG_OF_PERICENTER = 138.8735
MEAN_ANOMALY   = 221.2639

EPHEMERIS_TYPE = 0
CLASSIFICATION_TYPE = U
NORAD_CAT_ID   = 67147
ELEMENT_SET_NO = 999
REV_AT_EPOCH   = 377
BSTAR          = .17512297E-2
MEAN_MOTION_DOT = .62705E-3
MEAN_MOTION_DDOT = 0

CCSDS_OMM_VERS = 2.0
CREATION_DATE  = 
ORIGINATOR     = 

OBJECT_NAME    = KUIPER-00232
OBJECT_ID      = 2025-301R
CENTER_NAME    = EARTH
REF_FRAME      = TEME
TIME_SYSTEM    = UTC
MEAN_ELEMENT_THEORY = SGP/SGP4

EPOCH          = 2026-01-03T22:46:29.060544
MEAN_MOTION    = 15.37025795
ECCENTRICITY   = .00023077
INCLINATION    = 51.8742
RA_OF_ASC_NODE = 17.8521
ARG_OF_PERICENTER = 73.7995
MEAN_ANOMALY   = 286.3245

EPHEMERIS_TYPE = 0
CLASSIFICATION_TYPE = U
NORAD_CAT_ID   = 67148
ELEMENT_SET_NO = 999
REV_AT_EPOCH   = 378
BSTAR          = .15825015E-2
MEAN_MOTION_DOT = .58282E-3
MEAN_MOTION_DDOT = 0

CCSDS_OMM_VERS = 2.0
CREATION_DATE  = 
ORIGINATOR     = 

OBJECT_NAME    = KUIPER-00241
OBJECT_ID      = 2025-301S
CENTER_NAME    = EARTH
REF_FRAME      = TEME
TIME_SYSTEM    = UTC
MEAN_ELEMENT_THEORY = SGP/SGP4

EPOCH          = 2026-01-03T21:20:54.670560
MEAN_MOTION    = 15.36583461
ECCENTRICITY   = .00027995
INCLINATION    = 51.8746
RA_OF_ASC_NODE = 18.2006
ARG_OF_PERICENTER = 115.8393
MEAN_ANOMALY   = 244.2883

EPHEMERIS_TYPE = 0
CLASSIFICATION_TYPE = U
NORAD_CAT_ID   = 67149
ELEMENT_SET_NO = 999
REV_AT_EPOCH   = 410
BSTAR          = .13072933E-2
MEAN_MOTION_DOT = .47326E-3
MEAN_MOTION_DDOT = 0

CCSDS_OMM_VERS = 2.0
CREATION_DATE  = 
ORIGINATOR     = 

OBJECT_NAME    = KUIPER-00245
OBJECT_ID      = 2025-301T
CENTER_NAME    = EARTH
REF_FRAME      = TEME
TIME_SYSTEM    = UTC
MEAN_ELEMENT_THEORY = SGP/SGP4

EPOCH          = 2026-01-03T21:31:56.347680
MEAN_MOTION    = 15.35086031
ECCENTRICITY   = .00057905
INCLINATION    = 51.8733
RA_OF_ASC_NODE = 18.2536
ARG_OF_PERICENTER = 139.6509
MEAN_ANOMALY   = 220.4907

EPHEMERIS_TYPE = 0
CLASSIFICATION_TYPE = U
NORAD_CAT_ID   = 67150
ELEMENT_SET_NO = 999
REV_AT_EPOCH   = 377
BSTAR          = -.75938142E-3
MEAN_MOTION_DOT = -.26555E-3
MEAN_MOTION_DDOT = 0

CCSDS_OMM_VERS = 2.0
CREATION_DATE  = 
ORIGINATOR     = 

OBJECT_NAME    = KUIPER-00246
OBJECT_ID      = 2025-301U
CENTER_NAME    = EARTH
REF_FRAME      = TEME
TIME_SYSTEM    = UTC
MEAN_ELEMENT_THEORY = SGP/SGP4

EPOCH          = 2026-01-03T21:26:00.230208
MEAN_MOTION    = 15.36333410
ECCENTRICITY   = .00041433
INCLINATION    = 51.8739
RA_OF_ASC_NODE = 18.2256
ARG_OF_PERICENTER = 138.2694
MEAN_ANOMALY   = 221.8609

EPHEMERIS_TYPE = 0
CLASSIFICATION_TYPE = U
NORAD_CAT_ID   = 67151
ELEMENT_SET_NO = 999
REV_AT_EPOCH   = 379
BSTAR          = .15817322E-2
MEAN_MOTION_DOT = .56961E-3
MEAN_MOTION_DDOT = 0

CCSDS_OMM_VERS = 2.0
CREATION_DATE  = 
ORIGINATOR     = 

OBJECT_NAME    = KUIPER-00247
OBJECT_ID      = 2025-301V
CENTER_NAME    = EARTH
REF_FRAME      = TEME
TIME_SYSTEM    = UTC
MEAN_ELEMENT_THEORY = SGP/SGP4

EPOCH          = 2026-01-03T20:26:15.140832
MEAN_MOTION    = 15.34254110
ECCENTRICITY   = .00104327
INCLINATION    = 51.8637
RA_OF_ASC_NODE = 18.6920
ARG_OF_PERICENTER = 179.3786
MEAN_ANOMALY   = 180.7214

EPHEMERIS_TYPE = 0
CLASSIFICATION_TYPE = U
NORAD_CAT_ID   = 67152
ELEMENT_SET_NO = 999
REV_AT_EPOCH   = 376
BSTAR          = .47272201E-3
MEAN_MOTION_DOT = .1559E-3
MEAN_MOTION_DDOT = 0

CCSDS_OMM_VERS = 2.0
CREATION_DATE  = 
ORIGINATOR     = 

OBJECT_NAME    = KUIPER-00248
OBJECT_ID      = 2025-301W
CENTER_NAME    = EARTH
REF_FRAME      = TEME
TIME_SYSTEM    = UTC
MEAN_ELEMENT_THEORY = SGP/SGP4

EPOCH          = 2026-01-03T21:48:05.193216
MEAN_MOTION    = 15.35191452
ECCENTRICITY   = .00088754
INCLINATION    = 51.8682
RA_OF_ASC_NODE = 18.3249
ARG_OF_PERICENTER = 167.2208
MEAN_ANOMALY   = 192.9005

EPHEMERIS_TYPE = 0
CLASSIFICATION_TYPE = U
NORAD_CAT_ID   = 67153
ELEMENT_SET_NO = 999
REV_AT_EPOCH   = 394
BSTAR          = .91963356E-3
MEAN_MOTION_DOT = .31683E-3
MEAN_MOTION_DDOT = 0

CCSDS_OMM_VERS = 2.0
CREATION_DATE  = 
ORIGINATOR     = 

OBJECT_NAME    = KUIPER-00249
OBJECT_ID      = 2025-301X
CENTER_NAME    = EARTH
REF_FRAME      = TEME
TIME_SYSTEM    = UTC
MEAN_ELEMENT_THEORY = SGP/SGP4

EPOCH          = 2026-01-03T21:45:05.228064
MEAN_MOTION    = 15.35325544
ECCENTRICITY   = .0008292
INCLINATION    = 51.8660
RA_OF_ASC_NODE = 18.3103
ARG_OF_PERICENTER = 163.7466
MEAN_ANOMALY   = 196.3787

EPHEMERIS_TYPE = 0
CLASSIFICATION_TYPE = U
NORAD_CAT_ID   = 67154
ELEMENT_SET_NO = 999
REV_AT_EPOCH   = 377
BSTAR          = .94448103E-3
MEAN_MOTION_DOT = .3269E-3
MEAN_MOTION_DDOT = 0

CCSDS_OMM_VERS = 2.0
CREATION_DATE  = 
ORIGINATOR     = 

OBJECT_NAME    = KUIPER-00250
OBJECT_ID      = 2025-301Y
CENTER_NAME    = EARTH
REF_FRAME      = TEME
TIME_SYSTEM    = UTC
MEAN_ELEMENT_THEORY = SGP/SGP4

EPOCH          = 2026-01-03T21:36:10.067328
MEAN_MOTION    = 15.35872367
ECCENTRICITY   = .00065407
INCLINATION    = 51.8722
RA_OF_ASC_NODE = 18.2732
ARG_OF_PERICENTER = 153.2573
MEAN_ANOMALY   = 206.8751

EPHEMERIS_TYPE = 0
CLASSIFICATION_TYPE = U
NORAD_CAT_ID   = 67155
ELEMENT_SET_NO = 999
REV_AT_EPOCH   = 380
BSTAR          = .91887217E-3
MEAN_MOTION_DOT = .32345E-3
MEAN_MOTION_DDOT = 0

